{"type": "FeatureCollection", "features": [ {"type": "Feature", "properties": {"norad_id": 39122, "name": "EUTELSAT 117 WEST A", "group": "eutelsat", "lat": -0.0006836012818466618, "lon": 146.40929376623058, "alt_km": 35793.13823408343, "timestamp": "2025-12-21T11:31:42.513829+00:00", "meta": {"OBJECT_NAME": "EUTELSAT 117 WEST A", "OBJECT_ID": "2013-012A", "EPOCH": "2025-12-21T04:31:22.898208", "MEAN_MOTION": 1.00270307, "ECCENTRICITY": 0.0002596, "INCLINATION": 0.0286, "RA_OF_ASC_NODE": 304.2421, "ARG_OF_PERICENTER": 329.3971, "MEAN_ANOMALY": 127.4345, "EPHEMERIS_TYPE": 0, "CLASSIFICATION_TYPE": "U", "NORAD_CAT_ID": 39122, "ELEMENT_SET_NO": 999, "REV_AT_EPOCH": 4664, "BSTAR": 0, "MEAN_MOTION_DOT": 1e-07, "MEAN_MOTION_DDOT": 0}, "tle": {"line1": "1 39122U 13012A   25355.18845947  .00000010  00000+0  00000+0 0  9999", "line2": "2 39122   0.0286 304.2421 0002596 329.3971 127.4345  1.00270307 46643"}}, "geometry": {"type": "Point", "coordinates": [146.40929376623058, -0.0006836012818466618]}}, {"type": "Feature", "properties": {"norad_id": 39163, "name": "EUTELSAT 7B", "group": "eutelsat", "lat": -0.09213481080813439, "lon": -89.82665001283759, "alt_km": 35774.87768871369, "timestamp": "2025-12-21T11:31:42.513843+00:00", "meta": {"OBJECT_NAME": "EUTELSAT 7B", "OBJECT_ID": "2013-022A", "EPOCH": "2025-12-21T03:32:38.808096", "MEAN_MOTION": 1.0027093, "ECCENTRICITY": 0.0004387, "INCLINATION": 0.0651, "RA_OF_ASC_NODE": 0.6593, "ARG_OF_PERICENTER": 321.5749, "MEAN_ANOMALY": 187.8946, "EPHEMERIS_TYPE": 0, "CLASSIFICATION_TYPE": "U", "NORAD_CAT_ID": 39163, "ELEMENT_SET_NO": 999, "REV_AT_EPOCH": 4616, "BSTAR": 0, "MEAN_MOTION_DOT": 7.1e-07, "MEAN_MOTION_DDOT": 0}, "tle": {"line1": "1 39163U 13022A   25355.14767139  .00000071  00000+0  00000+0 0  9994", "line2": "2 39163   0.0651   0.6593 0004387 321.5749 187.8946  1.00270930 46164"}}, "geometry": {"type": "Point", "coordinates": [-89.82665001283759, -0.09213481080813439]}}, {"type": "Feature", "properties": {"norad_id": 39612, "name": "EXPRESS-AT1", "group": "eutelsat", "lat": -0.006235836427885917, "lon": -40.77906625997007, "alt_km": 35789.30221394179, "timestamp": "2025-12-21T11:31:42.513856+00:00", "meta": {"OBJECT_NAME": "EXPRESS-AT1", "OBJECT_ID": "2014-010A", "EPOCH": "2025-12-21T03:11:36.644064", "MEAN_MOTION": 1.00273021, "ECCENTRICITY": 8.6e-05, "INCLINATION": 0.0169, "RA_OF_ASC_NODE": 305.1797, "ARG_OF_PERICENTER": 200.8222, "MEAN_ANOMALY": 47.858, "EPHEMERIS_TYPE": 0, "CLASSIFICATION_TYPE": "U", "NORAD_CAT_ID": 39612, "ELEMENT_SET_NO": 999, "REV_AT_EPOCH": 4303, "BSTAR": 0, "MEAN_MOTION_DOT": 1.01e-06, "MEAN_MOTION_DDOT": 0}, "tle": {"line1": "1 39612U 14010A   25355.13306301  .00000101  00000+0  00000+0 0  9994", "line2": "2 39612   0.0169 305.1797 0000860 200.8222  47.8580  1.00273021 43039"}}, "geometry": {"type": "Point", "coordinates": [-40.77906625997007, -0.006235836427885917]}}, {"type": "Feature", "properties": {"norad_id": 39613, "name": "EXPRESS-AT2", "group": "eutelsat", "lat": 0.03656316436588092, "lon": 43.08296812889242, "alt_km": 35787.77504526733, "timestamp": "2025-12-21T11:31:42.513874+00:00", "meta": {"OBJECT_NAME": "EXPRESS-AT2", "OBJECT_ID": "2014-010B", "EPOCH": "2025-12-21T03:35:19.372992", "MEAN_MOTION": 1.00270951, "ECCENTRICITY": 0.000106, "INCLINATION": 0.019, "RA_OF_ASC_NODE": 327.4725, "ARG_OF_PERICENTER": 327.2965, "MEAN_ANOMALY": 348.8895, "EPHEMERIS_TYPE": 0, "CLASSIFICATION_TYPE": "U", "NORAD_CAT_ID": 39613, "ELEMENT_SET_NO": 999, "REV_AT_EPOCH": 4271, "BSTAR": 0, "MEAN_MOTION_DOT": -2.58e-06, "MEAN_MOTION_DDOT": 0}, "tle": {"line1": "1 39613U 14010B   25355.14952978 -.00000258  00000+0  00000+0 0  9997", "line2": "2 39613   0.0190 327.4725 0001060 327.2965 348.8895  1.00270951 42719"}}, "geometry": {"type": "Point", "coordinates": [43.08296812889242, 0.03656316436588092]}}, {"type": "Feature", "properties": {"norad_id": 39773, "name": "EUTELSAT 3B", "group": "eutelsat", "lat": -0.08665473982413878, "lon": -93.65913104173669, "alt_km": 35771.06679941482, "timestamp": "2025-12-21T11:31:42.513898+00:00", "meta": {"OBJECT_NAME": "EUTELSAT 3B", "OBJECT_ID": "2014-030A", "EPOCH": "2025-12-21T02:56:23.102304", "MEAN_MOTION": 1.00272656, "ECCENTRICITY": 0.0004155, "INCLINATION": 0.061, "RA_OF_ASC_NODE": 7.8675, "ARG_OF_PERICENTER": 225.4448, "MEAN_ANOMALY": 263.8264, "EPHEMERIS_TYPE": 0, "CLASSIFICATION_TYPE": "U", "NORAD_CAT_ID": 39773, "ELEMENT_SET_NO": 999, "REV_AT_EPOCH": 4228, "BSTAR": 0, "MEAN_MOTION_DOT": 4.3e-07, "MEAN_MOTION_DDOT": 0}, "tle": {"line1": "1 39773U 14030A   25355.12248961  .00000043  00000+0  00000+0 0  9995", "line2": "2 39773   0.0610   7.8675 0004155 225.4448 263.8264  1.00272656 42281"}}, "geometry": {"type": "Point", "coordinates": [-93.65913104173669, -0.08665473982413878]}}, {"type": "Feature", "properties": {"norad_id": 40425, "name": "EUTELSAT 115 WEST B", "group": "eutelsat", "lat": -0.003035191662151039, "lon": 148.31301970170114, "alt_km": 35788.23992726816, "timestamp": "2025-12-21T11:31:42.513923+00:00", "meta": {"OBJECT_NAME": "EUTELSAT 115 WEST B", "OBJECT_ID": "2015-010B", "EPOCH": "2025-12-21T04:29:33.222912", "MEAN_MOTION": 1.00269059, "ECCENTRICITY": 3.33e-05, "INCLINATION": 0.0159, "RA_OF_ASC_NODE": 149.3637, "ARG_OF_PERICENTER": 179.3265, "MEAN_ANOMALY": 73.8064, "EPHEMERIS_TYPE": 0, "CLASSIFICATION_TYPE": "U", "NORAD_CAT_ID": 40425, "ELEMENT_SET_NO": 999, "REV_AT_EPOCH": 3960, "BSTAR": 0, "MEAN_MOTION_DOT": -2e-08, "MEAN_MOTION_DDOT": 0}, "tle": {"line1": "1 40425U 15010B   25355.18719008 -.00000002  00000+0  00000+0 0  9997", "line2": "2 40425   0.0159 149.3637 0000333 179.3265  73.8064  1.00269059 39605"}}, "geometry": {"type": "Point", "coordinates": [148.31301970170114, -0.003035191662151039]}}, {"type": "Feature", "properties": {"norad_id": 40875, "name": "EUTELSAT 8 WEST B", "group": "eutelsat", "lat": -0.08736218425174522, "lon": -104.792462151906, "alt_km": 35768.89538846927, "timestamp": "2025-12-21T11:31:42.513938+00:00", "meta": {"OBJECT_NAME": "EUTELSAT 8 WEST B", "OBJECT_ID": "2015-039B", "EPOCH": "2025-12-21T03:40:38.748864", "MEAN_MOTION": 1.00271095, "ECCENTRICITY": 0.0004262, "INCLINATION": 0.0633, "RA_OF_ASC_NODE": 359.6767, "ARG_OF_PERICENTER": 271.2572, "MEAN_ANOMALY": 226.2083, "EPHEMERIS_TYPE": 0, "CLASSIFICATION_TYPE": "U", "NORAD_CAT_ID": 40875, "ELEMENT_SET_NO": 999, "REV_AT_EPOCH": 3787, "BSTAR": 0, "MEAN_MOTION_DOT": -4.3e-07, "MEAN_MOTION_DDOT": 0}, "tle": {"line1": "1 40875U 15039B   25355.15322626 -.00000043  00000+0  00000+0 0  9995", "line2": "2 40875   0.0633 359.6767 0004262 271.2572 226.2083  1.00271095 37874"}}, "geometry": {"type": "Point", "coordinates": [-104.792462151906, -0.08736218425174522]}}, {"type": "Feature", "properties": {"norad_id": 41310, "name": "EUTELSAT 9B", "group": "eutelsat", "lat": -0.04462950404153726, "lon": -87.78693660360923, "alt_km": 35766.808193975725, "timestamp": "2025-12-21T11:31:42.513950+00:00", "meta": {"OBJECT_NAME": "EUTELSAT 9B", "OBJECT_ID": "2016-005A", "EPOCH": "2025-12-21T02:58:07.934016", "MEAN_MOTION": 1.00272818, "ECCENTRICITY": 0.0004482, "INCLINATION": 0.0637, "RA_OF_ASC_NODE": 72.0406, "ARG_OF_PERICENTER": 203.606, "MEAN_ANOMALY": 227.8308, "EPHEMERIS_TYPE": 0, "CLASSIFICATION_TYPE": "U", "NORAD_CAT_ID": 41310, "ELEMENT_SET_NO": 999, "REV_AT_EPOCH": 3633, "BSTAR": 0, "MEAN_MOTION_DOT": 8.5e-07, "MEAN_MOTION_DDOT": 0}, "tle": {"line1": "1 41310U 16005A   25355.12370294  .00000085  00000+0  00000+0 0  9990", "line2": "2 41310   0.0637  72.0406 0004482 203.6060 227.8308  1.00272818 36335"}}, "geometry": {"type": "Point", "coordinates": [-87.78693660360923, -0.04462950404153726]}}, {"type": "Feature", "properties": {"norad_id": 41382, "name": "EUTELSAT 65 WEST A", "group": "eutelsat", "lat": -0.04601733613700022, "lon": -162.00202914259572, "alt_km": 35783.22591557282, "timestamp": "2025-12-21T11:31:42.513963+00:00", "meta": {"OBJECT_NAME": "EUTELSAT 65 WEST A", "OBJECT_ID": "2016-014A", "EPOCH": "2025-12-21T02:36:54.964800", "MEAN_MOTION": 1.00273844, "ECCENTRICITY": 0.0002134, "INCLINATION": 0.0523, "RA_OF_ASC_NODE": 333.7917, "ARG_OF_PERICENTER": 299.3331, "MEAN_ANOMALY": 150.8387, "EPHEMERIS_TYPE": 0, "CLASSIFICATION_TYPE": "U", "NORAD_CAT_ID": 41382, "ELEMENT_SET_NO": 999, "REV_AT_EPOCH": 3575, "BSTAR": 0, "MEAN_MOTION_DOT": -2.53e-06, "MEAN_MOTION_DDOT": 0}, "tle": {"line1": "1 41382U 16014A   25355.10896950 -.00000253  00000+0  00000+0 0  9997", "line2": "2 41382   0.0523 333.7917 0002134 299.3331 150.8387  1.00273844 35754"}}, "geometry": {"type": "Point", "coordinates": [-162.00202914259572, -0.04601733613700022]}}, {"type": "Feature", "properties": {"norad_id": 41589, "name": "EUTELSAT 117 WEST B", "group": "eutelsat", "lat": -0.004434559993978545, "lon": 146.2299164303304, "alt_km": 35787.8645113482, "timestamp": "2025-12-21T11:31:42.513975+00:00", "meta": {"OBJECT_NAME": "EUTELSAT 117 WEST B", "OBJECT_ID": "2016-038B", "EPOCH": "2025-12-21T04:32:38.608800", "MEAN_MOTION": 1.00270361, "ECCENTRICITY": 3.44e-05, "INCLINATION": 0.0136, "RA_OF_ASC_NODE": 151.844, "ARG_OF_PERICENTER": 158.1973, "MEAN_ANOMALY": 91.1465, "EPHEMERIS_TYPE": 0, "CLASSIFICATION_TYPE": "U", "NORAD_CAT_ID": 41589, "ELEMENT_SET_NO": 999, "REV_AT_EPOCH": 3487, "BSTAR": 0, "MEAN_MOTION_DOT": 1.1e-07, "MEAN_MOTION_DDOT": 0}, "tle": {"line1": "1 41589U 16038B   25355.18933575  .00000011  00000+0  00000+0 0  9996", "line2": "2 41589   0.0136 151.8440 0000344 158.1973  91.1465  1.00270361 34875"}}, "geometry": {"type": "Point", "coordinates": [146.2299164303304, -0.004434559993978545]}}]}